      2.10          N: GNSS NAV DATA                        RINEX VERSION / TYPE
fic2rin                                 03/29/2019 00:19:36 PGM / RUN BY / DATE
                                                            END OF HEADER
 7 19  3 28 16  0  0.0 6.143003702164e-06-7.389644451905e-12 0.000000000000e+00
    4.300000000000e+01 3.196875000000e+01 4.715553564591e-09 2.638287571701e+00
    1.547858119011e-06 1.237661181949e-02 8.523464202881e-06 5.153599872589e+03
    4.032000000000e+05-7.450580596924e-08 1.297817046444e+00-2.365559339523e-07
    9.557689753170e-01 2.136562500000e+02-2.472244235307e+00-7.868542042074e-09
   -2.628680923683e-10 1.000000000000e+00 2.046000000000e+03 0.000000000000e+00
    2.400000000000e+00 0.000000000000e+00-1.117587089539e-08 4.300000000000e+01
    3.960000000000e+05 4.000000000000e+00
 6 19  3 28 16  0  0.0 2.444675192237e-04-9.094947017729e-12 0.000000000000e+00
    3.900000000000e+01-7.075000000000e+01 4.110885520597e-09-2.838956331367e+00
   -3.632158041000e-06 1.616157125682e-03 6.577000021935e-06 5.153555240631e+03
    4.032000000000e+05 6.891787052155e-08-1.861719820286e+00-6.891787052155e-08
    9.743126074366e-01 2.622812500000e+02-1.145526534155e+00-7.897828976278e-09
    2.500104139373e-12 1.000000000000e+00 2.046000000000e+03 0.000000000000e+00
    2.400000000000e+00 0.000000000000e+00 4.656612873077e-09 3.900000000000e+01
    3.960000000000e+05 4.000000000000e+00
 4 19  3 28 16  0  0.0 1.405593939126e-04 6.139089236967e-12 0.000000000000e+00
    4.000000000000e+01 1.093750000000e+01 4.810200364153e-09 2.606212042438e+00
    4.675239324570e-07 3.448555944487e-04 7.731840014458e-06 5.153787300110e+03
    4.032000000000e+05 2.048909664154e-08 2.662971138294e-01-1.117587089539e-08
    9.602796125746e-01 2.346250000000e+02-1.688232176549e+00-8.033548915273e-09
    8.536069847286e-11 1.000000000000e+00 2.046000000000e+03 0.000000000000e+00
    3.400000000000e+00 6.300000000000e+01-8.847564458847e-09 4.000000000000e+01
    3.960000000000e+05 4.000000000000e+00
 9 19  3 28 16  0  0.0 4.380852915347e-04-6.139089236967e-12 0.000000000000e+00
    4.300000000000e+01 9.218750000000e+00 4.968064082668e-09-5.472209346570e-01
    2.682209014893e-07 1.366528565995e-03 7.731840014458e-06 5.153704605103e+03
    4.032000000000e+05 3.725290298462e-09 2.215669803769e-01-5.587935447693e-09
    9.529147343693e-01 2.301250000000e+02 1.744355516003e+00-8.155339702633e-09
    1.096474243982e-10 1.000000000000e+00 2.046000000000e+03 0.000000000000e+00
    2.400000000000e+00 0.000000000000e+00 1.396983861923e-09 4.300000000000e+01
    3.960000000000e+05 4.000000000000e+00
19 19  3 28 16  0  0.0-3.371504135430e-04 4.320099833421e-12 0.000000000000e+00
    3.700000000000e+01-7.687500000000e+00 4.068026592493e-09 1.881988714121e+00
   -7.823109626770e-07 9.478328982368e-03 4.362314939499e-06 5.153630620956e+03
    4.032000000000e+05 4.842877388000e-08-2.806706859681e+00-1.601874828339e-07
    9.819940143009e-01 3.075625000000e+02 1.364765423775e+00-7.989261356232e-09
   -7.857470152314e-11 1.000000000000e+00 2.046000000000e+03 0.000000000000e+00
    2.400000000000e+00 0.000000000000e+00-1.536682248116e-08 3.700000000000e+01
    3.960000000000e+05 4.000000000000e+00
11 19  3 28 16  0  0.0-6.369757466018e-04 6.821210263297e-12 0.000000000000e+00
    3.900000000000e+01-6.215625000000e+01 5.529873198558e-09 2.537123562249e+00
   -3.065913915634e-06 1.654036808759e-02 4.045665264130e-06 5.153695747375e+03
    4.032000000000e+05 1.769512891769e-07-2.300436043469e+00 9.499490261078e-08
    9.088400569735e-01 2.722500000000e+02 1.872821354070e+00-8.434637050775e-09
   -1.314340461842e-10 1.000000000000e+00 2.046000000000e+03 0.000000000000e+00
    2.400000000000e+00 0.000000000000e+00-1.210719347000e-08 3.900000000000e+01
    3.960000000000e+05 4.000000000000e+00
13 19  3 28 16  0  0.0-7.000612094998e-05 1.477928890381e-12 0.000000000000e+00
    8.700000000000e+01 1.431250000000e+01 4.592334146293e-09-1.940615504322e+00
    7.618218660355e-07 3.645525197499e-03 7.390975952148e-06 5.153659156799e+03
    4.032000000000e+05 4.097819328308e-08 3.578282363652e-01 2.607703208923e-08
    9.683751481405e-01 2.397187500000e+02 1.342866597818e+00-7.936759169305e-09
    8.571785620706e-11 1.000000000000e+00 2.046000000000e+03 0.000000000000e+00
    2.400000000000e+00 0.000000000000e+00-1.117587089539e-08 8.700000000000e+01
    3.960000000000e+05 4.000000000000e+00
27 19  3 28 16  0  0.0-9.589456021786e-05-8.299139153678e-12 0.000000000000e+00
    7.700000000000e+01-5.593750000000e+00 4.138029508396e-09-8.713827680871e-01
   -3.129243850708e-07 6.925925263204e-03 4.312023520470e-06 5.153637668610e+03
    4.032000000000e+05 1.639127731323e-07-2.908833387306e+00-4.097819328308e-08
    9.787398174020e-01 3.060625000000e+02 4.522955554454e-01-8.095337203288e-09
   -7.643175511796e-11 1.000000000000e+00 2.046000000000e+03 0.000000000000e+00
    2.400000000000e+00 0.000000000000e+00 1.396983861923e-09 7.700000000000e+01
    3.960000000000e+05 4.000000000000e+00
30 19  3 28 16  0  0.0-7.645552977920e-05-6.707523425575e-12 0.000000000000e+00
    5.400000000000e+01 3.212500000000e+01 5.143071372424e-09 2.642727953781e+00
    1.717358827591e-06 3.794070566073e-03 8.156523108482e-06 5.153610271454e+03
    4.032000000000e+05-1.173466444016e-07 1.326891962491e+00-3.539025783539e-08
    9.412354664409e-01 2.140937500000e+02-3.011486836080e+00-8.236057350562e-09
   -2.496532562031e-10 1.000000000000e+00 2.046000000000e+03 0.000000000000e+00
    2.400000000000e+00 0.000000000000e+00 3.725290298462e-09 5.400000000000e+01
    3.960000000000e+05 4.000000000000e+00
23 19  3 28 16  0  0.0-1.923581585288e-04 1.364242052659e-12 0.000000000000e+00
    4.900000000000e+01 6.718750000000e+00 5.106641283536e-09-2.278621898525e+00
    1.303851604462e-08 1.298827584833e-02 7.171183824539e-06 5.153610303879e+03
    4.032000000000e+05 1.937150955200e-07 2.170305006715e-01-7.264316082001e-08
    9.437276366270e-01 2.285937500000e+02-2.282651681925e+00-8.074622054705e-09
    2.392956819114e-10 1.000000000000e+00 2.046000000000e+03 0.000000000000e+00
    2.400000000000e+00 0.000000000000e+00-2.002343535423e-08 4.900000000000e+01
    3.960000000000e+05 4.000000000000e+00
21 19  3 28 16  0  0.0-2.236119471490e-04 7.503331289627e-12 0.000000000000e+00
    4.100000000000e+01-6.990625000000e+01 4.718053668730e-09 1.443795032110e+00
   -4.174187779427e-06 2.475737722125e-02 6.122514605522e-06 5.153771247864e+03
    4.032000000000e+05 1.676380634308e-07-1.916092947957e+00-6.239861249924e-07
    9.474992062080e-01 2.557500000000e+02-1.459495033826e+00-8.240700401106e-09
    3.928735076157e-11 1.000000000000e+00 2.046000000000e+03 0.000000000000e+00
    2.400000000000e+00 0.000000000000e+00-1.024454832077e-08 4.100000000000e+01
    3.960000000000e+05 4.000000000000e+00
20 19  3 28 16  0  0.0 5.234973505139e-04 3.410605131648e-13 0.000000000000e+00
    3.500000000000e+01-2.859375000000e+01 5.135213902271e-09 2.895451244698e+00
   -1.495704054832e-06 4.357431200333e-03 8.529052138329e-06 5.153680444717e+03
    4.032000000000e+05-1.303851604462e-08-9.303481813989e-01 3.725290298462e-08
    9.301930330850e-01 1.951875000000e+02 2.324061321957e+00-8.224985460802e-09
    2.407243128482e-10 1.000000000000e+00 2.046000000000e+03 0.000000000000e+00
    2.400000000000e+00 0.000000000000e+00-8.381903171539e-09 3.500000000000e+01
    3.960000000000e+05 4.000000000000e+00
24 19  3 28 16  0  0.0-6.402283906937e-05-5.684341886081e-13 0.000000000000e+00
    1.110000000000e+02 2.162500000000e+01 5.151286000310e-09-2.763547300449e+00
    1.002103090286e-06 8.254830376245e-03 7.804483175278e-06 5.153723058701e+03
    4.032000000000e+05-3.911554813385e-08 1.232853685099e+00-1.844018697739e-07
    9.389482335228e-01 2.169062500000e+02 6.035496897529e-01-8.215342201978e-09
   -2.071514858337e-10 1.000000000000e+00 2.046000000000e+03 0.000000000000e+00
    3.400000000000e+00 0.000000000000e+00 2.793967723846e-09 1.110000000000e+02
    3.960000000000e+05 4.000000000000e+00
25 19  3 28 16  0  0.0-7.388424128294e-04-4.774847184308e-12 0.000000000000e+00
    8.500000000000e+01 4.762500000000e+01 4.259820295757e-09 1.559647685586e+00
    2.447515726089e-06 8.392159012146e-03 7.376074790955e-06 5.153741033554e+03
    4.032000000000e+05-2.216547727585e-07 2.333518269568e+00 4.097819328308e-08
    9.708349424865e-01 2.444687500000e+02 8.747974427106e-01-8.029263022462e-09
   -1.510777215649e-10 1.000000000000e+00 2.046000000000e+03 0.000000000000e+00
    2.400000000000e+00 0.000000000000e+00 5.587935447693e-09 8.500000000000e+01
    3.960000000000e+05 4.000000000000e+00
32 19  3 28 16  0  0.0-1.592296175659e-04 1.818989403546e-11 0.000000000000e+00
    9.600000000000e+01 7.937500000000e+00 4.894489589423e-09-1.831419653294e-01
    4.563480615616e-07 2.773980842903e-03 7.303431630135e-06 5.153763452530e+03
    4.032000000000e+05-3.911554813385e-08 2.279884943959e-01 2.421438694000e-08
    9.571920113236e-01 2.378437500000e+02-2.578229520968e+00-8.138196131392e-09
    5.750239520557e-11 1.000000000000e+00 2.046000000000e+03 0.000000000000e+00
    2.400000000000e+00 0.000000000000e+00 4.656612873077e-10 9.600000000000e+01
    3.960000000000e+05 4.000000000000e+00
31 19  3 28 16  0  0.0 4.897825419903e-05-2.728484105319e-12 0.000000000000e+00
    9.000000000000e+01 3.353125000000e+01 4.698052835615e-09 2.237951387613e+00
    1.888722181320e-06 9.233633056283e-03 8.266419172287e-06 5.153584218979e+03
    4.032000000000e+05-1.043081283569e-07 1.311634026822e+00 2.123415470123e-07
    9.603237663681e-01 2.227187500000e+02-3.473456134819e-03-7.983546832485e-09
   -2.832260832175e-10 1.000000000000e+00 2.046000000000e+03 0.000000000000e+00
    2.400000000000e+00 0.000000000000e+00-1.350417733192e-08 9.000000000000e+01
    3.960000000000e+05 4.000000000000e+00
